{"fetched_at":"2026-07-17T06:37:56.553Z","source":"https://celestrak.org/NORAD/elements/gp.php?GROUP=spire&FORMAT=JSON","constellation":"spire","records":[{"OBJECT_NAME":"LEMUR-2-HUBBLE-4","OBJECT_ID":"2025-135AP","EPOCH":"2026-07-16T13:09:04.766112","CLASSIFICATION_TYPE":"U","MEAN_MOTION":14.93688184,"ECCENTRICITY":0.0002779,"INCLINATION":97.7721,"RA_OF_ASC_NODE":311.1143,"ARG_OF_PERICENTER":158.5821,"MEAN_ANOMALY":201.5516,"EPHEMERIS_TYPE":0,"NORAD_CAT_ID":64565,"ELEMENT_SET_NO":999,"REV_AT_EPOCH":5825,"BSTAR":0.000070823,"MEAN_MOTION_DOT":0.00000692,"MEAN_MOTION_DDOT":0},{"OBJECT_NAME":"LEMUR-2-SEJONG-2","OBJECT_ID":"2025-135BL","EPOCH":"2026-07-16T20:27:42.189696","CLASSIFICATION_TYPE":"U","MEAN_MOTION":14.96919594,"ECCENTRICITY":0.0004073,"INCLINATION":97.7709,"RA_OF_ASC_NODE":312.6775,"ARG_OF_PERICENTER":210.8077,"MEAN_ANOMALY":149.2906,"EPHEMERIS_TYPE":0,"NORAD_CAT_ID":64586,"ELEMENT_SET_NO":999,"REV_AT_EPOCH":5838,"BSTAR":0.00020503,"MEAN_MOTION_DOT":0.00002296,"MEAN_MOTION_DDOT":0},{"OBJECT_NAME":"LEMUR-2-HUBBLE-5","OBJECT_ID":"2025-135BT","EPOCH":"2026-07-16T13:21:06.848064","CLASSIFICATION_TYPE":"U","MEAN_MOTION":14.94215597,"ECCENTRICITY":0.0004402,"INCLINATION":97.7741,"RA_OF_ASC_NODE":311.7931,"ARG_OF_PERICENTER":229.6726,"MEAN_ANOMALY":130.411,"EPHEMERIS_TYPE":0,"NORAD_CAT_ID":64840,"ELEMENT_SET_NO":999,"REV_AT_EPOCH":5829,"BSTAR":0.000050607,"MEAN_MOTION_DOT":0.00000485,"MEAN_MOTION_DDOT":0},{"OBJECT_NAME":"LEMUR-2-KARENDARRELL","OBJECT_ID":"2025-135BU","EPOCH":"2026-07-16T06:19:20.436672","CLASSIFICATION_TYPE":"U","MEAN_MOTION":15.00507703,"ECCENTRICITY":0.0012563,"INCLINATION":97.772,"RA_OF_ASC_NODE":313.4341,"ARG_OF_PERICENTER":101.4569,"MEAN_ANOMALY":258.8066,"EPHEMERIS_TYPE":0,"NORAD_CAT_ID":64841,"ELEMENT_SET_NO":999,"REV_AT_EPOCH":5837,"BSTAR":0.00030661,"MEAN_MOTION_DOT":0.00003809,"MEAN_MOTION_DDOT":0},{"OBJECT_NAME":"LEMUR-2-LUCILLE-ROSE","OBJECT_ID":"2025-135BV","EPOCH":"2026-07-16T07:17:09.184992","CLASSIFICATION_TYPE":"U","MEAN_MOTION":15.00495624,"ECCENTRICITY":0.0015032,"INCLINATION":97.7711,"RA_OF_ASC_NODE":313.5095,"ARG_OF_PERICENTER":185.6878,"MEAN_ANOMALY":174.4177,"EPHEMERIS_TYPE":0,"NORAD_CAT_ID":65403,"ELEMENT_SET_NO":999,"REV_AT_EPOCH":5300,"BSTAR":0.00025193,"MEAN_MOTION_DOT":0.00003119,"MEAN_MOTION_DDOT":0},{"OBJECT_NAME":"LEMUR-2-AFFIE-WAUWIE","OBJECT_ID":"2025-248C","EPOCH":"2026-07-16T08:23:47.172192","CLASSIFICATION_TYPE":"U","MEAN_MOTION":15.28283546,"ECCENTRICITY":0.0008811,"INCLINATION":45.3891,"RA_OF_ASC_NODE":316.8486,"ARG_OF_PERICENTER":256.7086,"MEAN_ANOMALY":103.2821,"EPHEMERIS_TYPE":0,"NORAD_CAT_ID":66295,"ELEMENT_SET_NO":999,"REV_AT_EPOCH":3905,"BSTAR":0.00044396,"MEAN_MOTION_DOT":0.00012188,"MEAN_MOTION_DDOT":0},{"OBJECT_NAME":"OTTER SDM","OBJECT_ID":"2025-276N","EPOCH":"2026-07-16T03:36:52.500960","CLASSIFICATION_TYPE":"U","MEAN_MOTION":15.20063289,"ECCENTRICITY":0.00043382,"INCLINATION":97.4204,"RA_OF_ASC_NODE":270.1502,"ARG_OF_PERICENTER":249.3545,"MEAN_ANOMALY":110.7225,"EPHEMERIS_TYPE":0,"NORAD_CAT_ID":66678,"ELEMENT_SET_NO":999,"REV_AT_EPOCH":3481,"BSTAR":0.00016749566,"MEAN_MOTION_DOT":0.00003546,"MEAN_MOTION_DDOT":0},{"OBJECT_NAME":"LEMUR-2-STAS-GORBUK","OBJECT_ID":"2025-276W","EPOCH":"2026-07-16T15:11:49.472736","CLASSIFICATION_TYPE":"U","MEAN_MOTION":15.19667137,"ECCENTRICITY":0.0003676,"INCLINATION":97.4237,"RA_OF_ASC_NODE":270.6765,"ARG_OF_PERICENTER":240.8005,"MEAN_ANOMALY":119.2863,"EPHEMERIS_TYPE":0,"NORAD_CAT_ID":66686,"ELEMENT_SET_NO":999,"REV_AT_EPOCH":3488,"BSTAR":0.00013791,"MEAN_MOTION_DOT":0.00002874,"MEAN_MOTION_DDOT":0},{"OBJECT_NAME":"LEMUR-2-TEODOR","OBJECT_ID":"2025-276DG","EPOCH":"2026-07-16T15:36:34.808832","CLASSIFICATION_TYPE":"U","MEAN_MOTION":15.21346168,"ECCENTRICITY":0.0002197,"INCLINATION":97.4142,"RA_OF_ASC_NODE":270.9672,"ARG_OF_PERICENTER":87.4046,"MEAN_ANOMALY":272.7441,"EPHEMERIS_TYPE":0,"NORAD_CAT_ID":66768,"ELEMENT_SET_NO":999,"REV_AT_EPOCH":3492,"BSTAR":0.00013461,"MEAN_MOTION_DOT":0.00002946,"MEAN_MOTION_DDOT":0},{"OBJECT_NAME":"LEMUR-2-LAILA","OBJECT_ID":"2025-276DQ","EPOCH":"2026-07-16T14:52:46.990848","CLASSIFICATION_TYPE":"U","MEAN_MOTION":15.2157249,"ECCENTRICITY":0.0002923,"INCLINATION":97.4165,"RA_OF_ASC_NODE":271.0766,"ARG_OF_PERICENTER":92.46,"MEAN_ANOMALY":267.697,"EPHEMERIS_TYPE":0,"NORAD_CAT_ID":66776,"ELEMENT_SET_NO":999,"REV_AT_EPOCH":3492,"BSTAR":0.00014121,"MEAN_MOTION_DOT":0.00003115,"MEAN_MOTION_DDOT":0},{"OBJECT_NAME":"LEMUR-2-CELIJO-SB-PK","OBJECT_ID":"2025-276DW","EPOCH":"2026-07-16T15:39:08.631072","CLASSIFICATION_TYPE":"U","MEAN_MOTION":15.00293895,"ECCENTRICITY":0.0006898,"INCLINATION":97.5191,"RA_OF_ASC_NODE":267.457,"ARG_OF_PERICENTER":60.8187,"MEAN_ANOMALY":299.3727,"EPHEMERIS_TYPE":0,"NORAD_CAT_ID":66781,"ELEMENT_SET_NO":999,"REV_AT_EPOCH":2704,"BSTAR":0.00026434,"MEAN_MOTION_DOT":0.00003257,"MEAN_MOTION_DDOT":0},{"OBJECT_NAME":"LEMUR-2-FINNIAN","OBJECT_ID":"2025-276DX","EPOCH":"2026-07-16T14:55:52.660128","CLASSIFICATION_TYPE":"U","MEAN_MOTION":15.00626976,"ECCENTRICITY":0.0007223,"INCLINATION":97.5353,"RA_OF_ASC_NODE":267.6968,"ARG_OF_PERICENTER":355.4152,"MEAN_ANOMALY":4.7005,"EPHEMERIS_TYPE":0,"NORAD_CAT_ID":66782,"ELEMENT_SET_NO":999,"REV_AT_EPOCH":2441,"BSTAR":0.00011759,"MEAN_MOTION_DOT":0.00001429,"MEAN_MOTION_DDOT":0},{"OBJECT_NAME":"LEMUR-2-STARLIGHT","OBJECT_ID":"2025-276DY","EPOCH":"2026-07-16T17:41:52.528128","CLASSIFICATION_TYPE":"U","MEAN_MOTION":14.99367069,"ECCENTRICITY":0.0014757,"INCLINATION":97.5234,"RA_OF_ASC_NODE":267.3665,"ARG_OF_PERICENTER":42.7517,"MEAN_ANOMALY":317.4852,"EPHEMERIS_TYPE":0,"NORAD_CAT_ID":66783,"ELEMENT_SET_NO":999,"REV_AT_EPOCH":3462,"BSTAR":0.00031528,"MEAN_MOTION_DOT":0.00003808,"MEAN_MOTION_DDOT":0},{"OBJECT_NAME":"LEMUR-2-TARTIFLETTE","OBJECT_ID":"2025-276DZ","EPOCH":"2026-07-16T16:03:29.668032","CLASSIFICATION_TYPE":"U","MEAN_MOTION":14.9935019,"ECCENTRICITY":0.0013921,"INCLINATION":97.5233,"RA_OF_ASC_NODE":267.3085,"ARG_OF_PERICENTER":51.3073,"MEAN_ANOMALY":308.9394,"EPHEMERIS_TYPE":0,"NORAD_CAT_ID":66784,"ELEMENT_SET_NO":999,"REV_AT_EPOCH":3461,"BSTAR":0.00028548,"MEAN_MOTION_DOT":0.0000344,"MEAN_MOTION_DDOT":0},{"OBJECT_NAME":"LEMUR-2-VUKASIN","OBJECT_ID":"2025-276EA","EPOCH":"2026-07-16T10:31:01.980768","CLASSIFICATION_TYPE":"U","MEAN_MOTION":15.00552455,"ECCENTRICITY":0.0002856,"INCLINATION":97.5221,"RA_OF_ASC_NODE":267.4465,"ARG_OF_PERICENTER":51.1957,"MEAN_ANOMALY":308.9522,"EPHEMERIS_TYPE":0,"NORAD_CAT_ID":66785,"ELEMENT_SET_NO":999,"REV_AT_EPOCH":3453,"BSTAR":0.00018768,"MEAN_MOTION_DOT":0.0000231,"MEAN_MOTION_DDOT":0},{"OBJECT_NAME":"LEMUR-2-HOTSPUR-TOM","OBJECT_ID":"2025-276EB","EPOCH":"2026-07-16T15:55:34.394592","CLASSIFICATION_TYPE":"U","MEAN_MOTION":14.99250046,"ECCENTRICITY":0.0013734,"INCLINATION":97.5215,"RA_OF_ASC_NODE":267.2768,"ARG_OF_PERICENTER":42.8928,"MEAN_ANOMALY":317.3364,"EPHEMERIS_TYPE":0,"NORAD_CAT_ID":66786,"ELEMENT_SET_NO":999,"REV_AT_EPOCH":3454,"BSTAR":0.00024457,"MEAN_MOTION_DOT":0.00002931,"MEAN_MOTION_DDOT":0}]}
